HIMAWARI-8              
1 40267U 14060A   24096.21160510 -.00000284  00000+0  00000+0 0  9990
2 40267   0.0227 188.8531 0000987 214.9994   6.9617  1.00271837 34812
